{
  "norad_id": 68591,
  "name": "KUIPER-00289",
  "history": [
    {
      "epoch": "2026-04-09T12:11:45.098304Z",
      "apogee_km": 465.8363447899428,
      "perigee_km": 450.7087377570124,
      "latitude_deg": 2.182978060617147e-06,
      "longitude_deg": 128.43224242338684,
      "height_km": 464.66496659264175,
      "semi_major_axis_km": 6836.409541273477,
      "eccentricity": 0.0011064,
      "inclination_deg": 51.865,
      "raan_deg": 149.1255,
      "arg_perigee_deg": 138.2553,
      "mean_anomaly_deg": 221.9279,
      "mean_motion_rev_day": 15.35891916
    }
  ]
}